SatCatId,ObjectName,LaunchYear,OrbitalPeriod,LaunchMass,StatusCode,Inclination,Status,UcsData,OrbitClassEstimated,LaunchSiteCountry,Owner,UseType,Purpose,LaunchVehicleClass,TLE1,TLE2,MeanMotion,Eccentricity,OrbitClass
47122,STARLINK-1777,2020,95.59,260.0,+,53.05,Active,1,LEO,USA,USA,Commercial,Communications,Falcon,1 47122U 20088A   24131.50175447  .00006040  00000+0  42395-3 0  9993,2 47122  53.0549  61.2285 0001400  95.0082 265.1067 15.06404803191129,15.06404803,0.00014,LEO
47124,STARLINK-1785,2020,95.59,260.0,+,53.05,Active,1,LEO,USA,USA,Commercial,Communications,Falcon,1 47124U 20088C   24131.55473469  .00005276  00000+0  37287-3 0  9999,2 47124  53.0532  66.0004 0001454  98.1610 261.9544 15.06397105191068,15.06397105,0.0001454,LEO
47126,STARLINK-1812,2020,95.59,260.0,+,53.06,Active,1,LEO,USA,USA,Commercial,Communications,Falcon,1 47126U 20088E   24131.52754897 -.00000740  00000+0 -30765-4 0  9993,2 47126  53.0565  61.1104 0001609  79.6751 280.4420 15.06400533191132,15.06400533,0.0001609,LEO
47128,STARLINK-1837,2020,95.59,260.0,+,53.06,Active,1,LEO,USA,USA,Commercial,Communications,Falcon,1 47128U 20088G   24131.48516685  .00004027  00000+0  28902-3 0  9990,2 47128  53.0544  41.3061 0001790  82.1059 278.0133 15.06410190191408,15.0641019,0.000179,LEO
47129,STARLINK-1838,2020,95.59,260.0,+,53.06,Active,1,LEO,USA,USA,Commercial,Communications,Falcon,1 47129U 20088H   24131.51372623  .00012020  00000+0  82418-3 0  9991,2 47129  53.0551  51.1736 0001722  80.7877 279.3307 15.06411724191278,15.06411724,0.0001722,LEO
47133,STARLINK-1843,2020,95.59,260.0,+,53.05,Active,1,LEO,USA,USA,Commercial,Communications,Falcon,1 47133U 20088M   24131.50635992  .00004783  00000+0  33986-3 0  9999,2 47133  53.0549  51.2059 0001307  81.6446 278.4691 15.06393694191260,15.06393694,0.0001307,LEO
47134,STARLINK-1844,2020,95.59,260.0,+,53.06,Active,1,LEO,USA,USA,Commercial,Communications,Falcon,1 47134U 20088N   24131.21423017  .00000380  00000+0  44370-4 0  9990,2 47134  53.0559  62.5155 0001435 113.9985 246.1155 15.06417413191086,15.06417413,0.0001435,LEO
47135,STARLINK-1845,2020,95.59,260.0,+,53.05,Active,1,LEO,USA,USA,Commercial,Communications,Falcon,1 47135U 20088P   24131.49898845  .00001838  00000+0  14226-3 0  9991,2 47135  53.0543  51.2401 0001067  89.8280 270.2831 15.06390869191263,15.06390869,0.0001067,LEO
47136,STARLINK-1846,2020,95.59,260.0,+,53.06,Active,1,LEO,USA,USA,Commercial,Communications,Falcon,1 47136U 20088Q   24131.49805125  .00009181  00000+0  63419-3 0  9998,2 47136  53.0544  61.2428 0000842  78.1148 281.9935 15.06412594191128,15.06412594,8.42e-05,LEO
47137,STARLINK-1849,2020,95.59,260.0,+,53.06,Active,1,LEO,USA,USA,Commercial,Communications,Falcon,1 47137U 20088R   24131.48056782  .00005829  00000+0  40981-3 0  9999,2 47137  53.0560  51.3218 0002237  79.3047 280.8194 15.06406994191262,15.06406994,0.0002237,LEO
47138,STARLINK-1850,2020,95.59,260.0,+,53.06,Active,1,LEO,USA,USA,Commercial,Communications,Falcon,1 47138U 20088S   24131.21288828  .00004535  00000+0  32300-3 0  9998,2 47138  53.0564  57.8423 0001392  96.2913 263.8235 15.06419663191452,15.06419663,0.0001392,LEO
47139,STARLINK-1852,2020,95.59,260.0,+,53.06,Active,1,LEO,USA,USA,Commercial,Communications,Falcon,1 47139U 20088T   24131.52895525  .00000203  00000+0  32548-4 0  9994,2 47139  53.0552  66.3099 0001643  81.5808 278.5367 15.06397573191356,15.06397573,0.0001643,LEO
47141,STARLINK-1854,2020,95.59,260.0,+,53.05,Active,1,LEO,USA,USA,Commercial,Communications,Falcon,1 47141U 20088V   24131.05667630  .00025721  00000+0  17379-2 0  9994,2 47141  53.0550  53.2247 0001432  93.0430 267.0722 15.06431031191202,15.06431031,0.0001432,LEO
47143,STARLINK-1856,2020,95.59,260.0,+,53.05,Active,1,LEO,USA,USA,Commercial,Communications,Falcon,1 47143U 20088X   24131.50268072  .00005959  00000+0  41855-3 0  9991,2 47143  53.0555  51.2250 0001243 105.1061 255.0066 15.06405126191266,15.06405126,0.0001243,LEO
47144,STARLINK-1857,2020,95.59,260.0,+,53.05,Active,1,LEO,USA,USA,Commercial,Communications,Falcon,1 47144U 20088Y   24131.48885451  .00012254  00000+0  84015-3 0  9996,2 47144  53.0544  41.2869 0002137  74.7356 285.3869 15.06398240191402,15.0639824,0.0002137,LEO
47147,STARLINK-1860,2020,95.59,260.0,+,53.05,Active,1,LEO,USA,USA,Commercial,Communications,Falcon,1 47147U 20088AB  24131.51279983  .00000403  00000+0  45943-4 0  9991,2 47147  53.0557  61.1772 0001269  93.1071 267.0064 15.06407538191132,15.06407538,0.0001269,LEO
47148,STARLINK-1861,2020,95.59,260.0,+,53.05,Active,1,LEO,USA,USA,Commercial,Communications,Falcon,1 47148U 20088AC  24131.48793141  .00002739  00000+0  20271-3 0  9995,2 47148  53.0555  51.2882 0002264  77.9762 282.1480 15.06404890191268,15.0640489,0.0002264,LEO
47149,STARLINK-1862,2020,95.59,260.0,+,53.06,Active,1,LEO,USA,USA,Commercial,Communications,Falcon,1 47149U 20088AD  24131.51648443  .00000332  00000+0  41204-4 0  9991,2 47149  53.0558  61.1571 0001561  78.5894 281.5270 15.06408646191868,15.06408646,0.0001561,LEO
47150,STARLINK-1863,2020,95.59,260.0,+,53.05,Active,1,LEO,USA,USA,Commercial,Communications,Falcon,1 47150U 20088AE  24131.04561094  .00008009  00000+0  55564-3 0  9999,2 47150  53.0549  53.2762 0001506  87.8340 272.2821 15.06423126191209,15.06423126,0.0001506,LEO
47151,STARLINK-1864,2020,95.59,260.0,+,53.06,Active,1,LEO,USA,USA,Commercial,Communications,Falcon,1 47151U 20088AF  24131.50912430  .00005745  00000+0  40437-3 0  9992,2 47151  53.0552  61.1915 0001251  87.4754 272.6378 15.06389502191125,15.06389502,0.0001251,LEO
47152,STARLINK-1866,2020,95.59,260.0,+,53.06,Active,1,LEO,USA,USA,Commercial,Communications,Falcon,1 47152U 20088AG  24131.49343048  .00001303  00000+0  10639-3 0  9991,2 47152  53.0533  61.2546 0002058  80.6643 279.4579 15.06397353191125,15.06397353,0.0002058,LEO
47153,STARLINK-1867,2020,95.59,260.0,+,53.05,Active,1,LEO,USA,USA,Commercial,Communications,Falcon,1 47153U 20088AH  24131.55845821  .00001848  00000+0  14292-3 0  9998,2 47153  53.0535  66.2146 0001804  86.0874 274.0321 15.06402062191066,15.06402062,0.0001804,LEO
47155,STARLINK-1869,2020,95.59,260.0,+,53.05,Active,1,LEO,USA,USA,Commercial,Communications,Falcon,1 47155U 20088AK  24131.23543232  .00003941  00000+0  28321-3 0  9990,2 47155  53.0534  72.4263 0001411  88.8259 271.2892 15.06416023190947,15.06416023,0.0001411,LEO
47157,STARLINK-1871,2020,95.59,260.0,+,53.06,Active,1,LEO,USA,USA,Commercial,Communications,Falcon,1 47157U 20088AM  24131.20686935  .00015303  00000+0  10434-2 0  9997,2 47157  53.0565  62.5501 0001608  86.5462 273.5710 15.06421320191331,15.0642132,0.0001608,LEO
47158,STARLINK-1873,2020,95.59,260.0,+,53.06,Active,1,LEO,USA,USA,Commercial,Communications,Falcon,1 47158U 20088AN  24131.49530484  .00001891  00000+0  14580-3 0  9990,2 47158  53.0548  51.2584 0001620  76.4959 283.6211 15.06400662191268,15.06400662,0.000162,LEO
47161,STARLINK-1876,2020,95.59,260.0,+,53.06,Active,1,LEO,USA,USA,Commercial,Communications,Falcon,1 47161U 20088AR  24131.06404485  .00007877  00000+0  54686-3 0  9999,2 47161  53.0555  53.1920 0001460  96.8786 263.2369 15.06417806191201,15.06417806,0.000146,LEO
47162,STARLINK-1877,2020,95.59,260.0,+,53.06,Active,1,LEO,USA,USA,Commercial,Communications,Falcon,1 47162U 20088AS  24131.52386402  .00003176  00000+0  23198-3 0  9991,2 47162  53.0556  61.1271 0001442  83.2973 276.8180 15.06401274191134,15.06401274,0.0001442,LEO
47163,STARLINK-1878,2020,95.59,260.0,+,53.06,Active,1,LEO,USA,USA,Commercial,Communications,Falcon,1 47163U 20088AT  24131.22437427  .00003665  00000+0  26475-3 0  9997,2 47163  53.0555  72.4742 0001440 103.7639 256.3510 15.06409479190940,15.06409479,0.000144,LEO
47164,STARLINK-1879,2020,95.59,260.0,+,53.06,Active,1,LEO,USA,USA,Commercial,Communications,Falcon,1 47164U 20088AU  24131.47779614  .00002561  00000+0  19073-3 0  9992,2 47164  53.0565  41.3354 0001589  72.1943 287.9219 15.06403275191403,15.06403275,0.0001589,LEO
47165,STARLINK-1880,2020,95.59,260.0,+,53.05,Active,1,LEO,USA,USA,Commercial,Communications,Falcon,1 47165U 20088AV  24131.21793368 -.00000716  00000+0 -29206-4 0  9999,2 47165  53.0543  62.5010 0001181  92.1408 267.9717 15.06375266191083,15.06375266,0.0001181,LEO
47167,STARLINK-1884,2020,95.59,260.0,+,53.06,Active,1,LEO,USA,USA,Commercial,Communications,Falcon,1 47167U 20088AX  24131.53492763  .00005367  00000+0  37897-3 0  9990,2 47167  53.0553  61.0771 0001461  84.4858 275.6297 15.06394741191132,15.06394741,0.0001461,LEO
47170,STARLINK-1887,2020,95.59,260.0,+,53.05,Active,1,LEO,USA,USA,Commercial,Communications,Falcon,1 47170U 20088BA  24131.52017211  .00007364  00000+0  51262-3 0  9995,2 47170  53.0543  61.1442 0001567  75.8907 284.2256 15.06411242191134,15.06411242,0.0001567,LEO
47171,STARLINK-1888,2020,95.59,260.0,+,53.06,Active,1,LEO,USA,USA,Commercial,Communications,Falcon,1 47171U 20088BB  24131.47317897 -.00006593  00000+0 -42411-3 0  9994,2 47171  53.0539  51.3567 0001597  97.8800 262.2371 15.06397473191265,15.06397473,0.0001597,LEO
47173,STARLINK-1890,2020,95.59,260.0,+,53.05,Active,1,LEO,USA,USA,Commercial,Communications,Falcon,1 47173U 20088BD  24131.53124620  .00002308  00000+0  17384-3 0  9992,2 47173  53.0546  61.0959 0001769  78.3935 281.7252 15.06390738191139,15.06390738,0.0001769,LEO
47174,STARLINK-1891,2020,95.59,260.0,+,53.05,Active,1,LEO,USA,USA,Commercial,Communications,Falcon,1 47174U 20088BE  24131.54229758  .00006905  00000+0  48187-3 0  9994,2 47174  53.0547  61.0432 0001409  87.6753 272.4397 15.06407467191134,15.06407467,0.0001409,LEO
47175,STARLINK-1895,2020,95.59,260.0,+,53.06,Active,1,LEO,USA,USA,Commercial,Communications,Falcon,1 47175U 20088BF  24131.47410505  .00011106  00000+0  76332-3 0  9991,2 47175  53.0556  41.3503 0001777  72.0986 288.0197 15.06398538191408,15.06398538,0.0001777,LEO
